IRIDIUM 112             
1 41925U 17003J   23318.56081366  .00000130  00000+0  39474-4 0  9998
2 41925  86.3937 123.5364 0001989  85.5326 274.6097 14.34217943357760
IRIDIUM 111             
1 41926U 17003K   23318.54812759  .00000063  00000+0  15494-4 0  9996
2 41926  86.3942 123.5916 0001882  96.5588 263.5822 14.34218447357712
IRIDIUM 113             
1 42803U 17039A   23318.52809778  .00000406  00000+0  13805-3 0  9999
2 42803  86.3994 357.3503 0001959  93.2288 266.9132 14.34216870335646
IRIDIUM 123             
1 42804U 17039B   23318.29049691  .00000417  00000+0  14177-3 0  9999
2 42804  86.4010  28.9350 0001915  93.8265 266.3150 14.34218059334375
IRIDIUM 120             
1 42805U 17039C   23318.52175095  .00000378  00000+0  12800-3 0  9991
2 42805  86.3983 357.2581 0002101  93.5990 266.5446 14.34216643335635
IRIDIUM 115             
1 42806U 17039D   23318.51529645  .00000174  00000+0  45665-4 0  9995
2 42806  86.4520 357.2530 0002001  98.4763 261.6665 14.43335879337868
IRIDIUM 118             
1 42807U 17039E   23318.46174867  .00000397  00000+0  13483-3 0  9991
2 42807  86.4009  28.8656 0002096  94.2477 265.8958 14.34218080334391
IRIDIUM 117             
1 42808U 17039F   23318.48077999  .00000410  00000+0  13920-3 0  9994
2 42808  86.4008  28.8239 0002069  98.1971 261.9459 14.34215571334429
